{
"type": "FeatureCollection",
"name": "ward centroids",
"crs": { "type": "name", "properties": { "name": "urn:ogc:def:crs:OGC:1.3:CRS84" } },
"features": [
{ "type": "Feature", "properties": { "_id": 1, "AREA_ID": 2457740.0, "DATE_EFFECTIVE": "2018-08-07T14:11:06", "DATE_EXPIRY": "3000-01-01T00:00:00", "AREA_ATTR_ID": 25993196.0, "AREA_TYPE_ID": 528.0, "PARENT_AREA_ID": null, "AREA_TYPE": "CITW", "AREA_CLASS_ID": null, "AREA_CLASS": "None", "AREA_SHORT_CODE": "07", "AREA_LONG_CODE": "07", "AREA_NAME": "Humber River-Black Creek", "AREA_DESC": "Humber River-Black Creek (7)", "FEATURE_CODE": null, "FEATURE_CODE_DESC": "None", "TRANS_ID_CREATE": 279754.0, "TRANS_ID_EXPIRE": -1.0, "OBJECTID": 17344785, "Toronto Raccoon Activity Index_datetime": "March 30, 2024", "Toronto Raccoon Activity Index_date": "March 30, 2024", "Toronto Raccoon Activity Index_hour": "23", "Toronto Raccoon Activity Index_ward_id": "7", "Toronto Raccoon Activity Index_units_observed": "16", "Toronto Raccoon Activity Index_bins_compromised": "11", "Toronto Raccoon Activity Index_raccoon_confidence_level": "10", "Toronto Raccoon Activity Index_average_unit_weight_kg": "5.97", "Toronto Raccoon Activity Index_incidents_of_raccoon_human_standoff": "3", "Toronto Raccoon Activity Index_avg_standoff_duration_sec": "26", "Toronto Raccoon Activity Index_proximity_to_a_patio": "0", "Toronto Raccoon Activity Index_complaints_logged": "2" }, "geometry": { "type": "Point", "coordinates": [ -79.530271395022012, 43.750726216452613 ] } },
{ "type": "Feature", "properties": { "_id": 2, "AREA_ID": 2457739.0, "DATE_EFFECTIVE": "2018-08-07T14:11:06", "DATE_EXPIRY": "3000-01-01T00:00:00", "AREA_ATTR_ID": 25993195.0, "AREA_TYPE_ID": 528.0, "PARENT_AREA_ID": null, "AREA_TYPE": "CITW", "AREA_CLASS_ID": null, "AREA_CLASS": "None", "AREA_SHORT_CODE": "06", "AREA_LONG_CODE": "06", "AREA_NAME": "York Centre", "AREA_DESC": "York Centre (6)", "FEATURE_CODE": null, "FEATURE_CODE_DESC": "None", "TRANS_ID_CREATE": 279754.0, "TRANS_ID_EXPIRE": -1.0, "OBJECTID": 17344801, "Toronto Raccoon Activity Index_datetime": "March 30, 2024", "Toronto Raccoon Activity Index_date": "March 30, 2024", "Toronto Raccoon Activity Index_hour": "23", "Toronto Raccoon Activity Index_ward_id": "6", "Toronto Raccoon Activity Index_units_observed": "13", "Toronto Raccoon Activity Index_bins_compromised": "11", "Toronto Raccoon Activity Index_raccoon_confidence_level": "10", "Toronto Raccoon Activity Index_average_unit_weight_kg": "6.64", "Toronto Raccoon Activity Index_incidents_of_raccoon_human_standoff": "2", "Toronto Raccoon Activity Index_avg_standoff_duration_sec": "32", "Toronto Raccoon Activity Index_proximity_to_a_patio": "0", "Toronto Raccoon Activity Index_complaints_logged": "2" }, "geometry": { "type": "Point", "coordinates": [ -79.467807651894944, 43.752568800037878 ] } },
{ "type": "Feature", "properties": { "_id": 3, "AREA_ID": 2457738.0, "DATE_EFFECTIVE": "2018-08-07T14:11:06", "DATE_EXPIRY": "3000-01-01T00:00:00", "AREA_ATTR_ID": 25993194.0, "AREA_TYPE_ID": 528.0, "PARENT_AREA_ID": null, "AREA_TYPE": "CITW", "AREA_CLASS_ID": null, "AREA_CLASS": "None", "AREA_SHORT_CODE": "18", "AREA_LONG_CODE": "18", "AREA_NAME": "Willowdale", "AREA_DESC": "Willowdale (18)", "FEATURE_CODE": null, "FEATURE_CODE_DESC": "None", "TRANS_ID_CREATE": 279754.0, "TRANS_ID_EXPIRE": -1.0, "OBJECTID": 17344817, "Toronto Raccoon Activity Index_datetime": "March 30, 2024", "Toronto Raccoon Activity Index_date": "March 30, 2024", "Toronto Raccoon Activity Index_hour": "23", "Toronto Raccoon Activity Index_ward_id": "18", "Toronto Raccoon Activity Index_units_observed": "15", "Toronto Raccoon Activity Index_bins_compromised": "11", "Toronto Raccoon Activity Index_raccoon_confidence_level": "6.3", "Toronto Raccoon Activity Index_average_unit_weight_kg": "6.11", "Toronto Raccoon Activity Index_incidents_of_raccoon_human_standoff": "4", "Toronto Raccoon Activity Index_avg_standoff_duration_sec": "22", "Toronto Raccoon Activity Index_proximity_to_a_patio": "0", "Toronto Raccoon Activity Index_complaints_logged": "1" }, "geometry": { "type": "Point", "coordinates": [ -79.416499967360508, 43.776887402877541 ] } },
{ "type": "Feature", "properties": { "_id": 4, "AREA_ID": 2457737.0, "DATE_EFFECTIVE": "2018-08-07T14:11:06", "DATE_EXPIRY": "3000-01-01T00:00:00", "AREA_ATTR_ID": 25993193.0, "AREA_TYPE_ID": 528.0, "PARENT_AREA_ID": null, "AREA_TYPE": "CITW", "AREA_CLASS_ID": null, "AREA_CLASS": "None", "AREA_SHORT_CODE": "11", "AREA_LONG_CODE": "11", "AREA_NAME": "University-Rosedale", "AREA_DESC": "University-Rosedale (11)", "FEATURE_CODE": null, "FEATURE_CODE_DESC": "None", "TRANS_ID_CREATE": 279754.0, "TRANS_ID_EXPIRE": -1.0, "OBJECTID": 17344833, "Toronto Raccoon Activity Index_datetime": "March 30, 2024", "Toronto Raccoon Activity Index_date": "March 30, 2024", "Toronto Raccoon Activity Index_hour": "23", "Toronto Raccoon Activity Index_ward_id": "11", "Toronto Raccoon Activity Index_units_observed": "28", "Toronto Raccoon Activity Index_bins_compromised": "18", "Toronto Raccoon Activity Index_raccoon_confidence_level": "10", "Toronto Raccoon Activity Index_average_unit_weight_kg": "5.74", "Toronto Raccoon Activity Index_incidents_of_raccoon_human_standoff": "5", "Toronto Raccoon Activity Index_avg_standoff_duration_sec": "29", "Toronto Raccoon Activity Index_proximity_to_a_patio": "1", "Toronto Raccoon Activity Index_complaints_logged": "2" }, "geometry": { "type": "Point", "coordinates": [ -79.394312249304278, 43.671140183494636 ] } },
{ "type": "Feature", "properties": { "_id": 5, "AREA_ID": 2457736.0, "DATE_EFFECTIVE": "2018-08-07T14:11:06", "DATE_EXPIRY": "3000-01-01T00:00:00", "AREA_ATTR_ID": 25993192.0, "AREA_TYPE_ID": 528.0, "PARENT_AREA_ID": null, "AREA_TYPE": "CITW", "AREA_CLASS_ID": null, "AREA_CLASS": "None", "AREA_SHORT_CODE": "19", "AREA_LONG_CODE": "19", "AREA_NAME": "Beaches-East York", "AREA_DESC": "Beaches-East York (19)", "FEATURE_CODE": null, "FEATURE_CODE_DESC": "None", "TRANS_ID_CREATE": 279754.0, "TRANS_ID_EXPIRE": -1.0, "OBJECTID": 17344849, "Toronto Raccoon Activity Index_datetime": "March 30, 2024", "Toronto Raccoon Activity Index_date": "March 30, 2024", "Toronto Raccoon Activity Index_hour": "23", "Toronto Raccoon Activity Index_ward_id": "19", "Toronto Raccoon Activity Index_units_observed": "24", "Toronto Raccoon Activity Index_bins_compromised": "13", "Toronto Raccoon Activity Index_raccoon_confidence_level": "10", "Toronto Raccoon Activity Index_average_unit_weight_kg": "5.23", "Toronto Raccoon Activity Index_incidents_of_raccoon_human_standoff": "3", "Toronto Raccoon Activity Index_avg_standoff_duration_sec": "27", "Toronto Raccoon Activity Index_proximity_to_a_patio": "1", "Toronto Raccoon Activity Index_complaints_logged": "3" }, "geometry": { "type": "Point", "coordinates": [ -79.306674077831786, 43.689271524385646 ] } },
{ "type": "Feature", "properties": { "_id": 6, "AREA_ID": 2457735.0, "DATE_EFFECTIVE": "2018-08-07T14:11:06", "DATE_EXPIRY": "3000-01-01T00:00:00", "AREA_ATTR_ID": 25993191.0, "AREA_TYPE_ID": 528.0, "PARENT_AREA_ID": null, "AREA_TYPE": "CITW", "AREA_CLASS_ID": null, "AREA_CLASS": "None", "AREA_SHORT_CODE": "20", "AREA_LONG_CODE": "20", "AREA_NAME": "Scarborough Southwest", "AREA_DESC": "Scarborough Southwest (20)", "FEATURE_CODE": null, "FEATURE_CODE_DESC": "None", "TRANS_ID_CREATE": 279754.0, "TRANS_ID_EXPIRE": -1.0, "OBJECTID": 17344865, "Toronto Raccoon Activity Index_datetime": "March 30, 2024", "Toronto Raccoon Activity Index_date": "March 30, 2024", "Toronto Raccoon Activity Index_hour": "23", "Toronto Raccoon Activity Index_ward_id": "20", "Toronto Raccoon Activity Index_units_observed": "18", "Toronto Raccoon Activity Index_bins_compromised": "11", "Toronto Raccoon Activity Index_raccoon_confidence_level": "7.9", "Toronto Raccoon Activity Index_average_unit_weight_kg": "5.96", "Toronto Raccoon Activity Index_incidents_of_raccoon_human_standoff": "3", "Toronto Raccoon Activity Index_avg_standoff_duration_sec": "28", "Toronto Raccoon Activity Index_proximity_to_a_patio": "0", "Toronto Raccoon Activity Index_complaints_logged": "1" }, "geometry": { "type": "Point", "coordinates": [ -79.259789043022025, 43.713628087648338 ] } },
{ "type": "Feature", "properties": { "_id": 7, "AREA_ID": 2457734.0, "DATE_EFFECTIVE": "2018-08-07T14:11:06", "DATE_EXPIRY": "3000-01-01T00:00:00", "AREA_ATTR_ID": 25993190.0, "AREA_TYPE_ID": 528.0, "PARENT_AREA_ID": null, "AREA_TYPE": "CITW", "AREA_CLASS_ID": null, "AREA_CLASS": "None", "AREA_SHORT_CODE": "25", "AREA_LONG_CODE": "25", "AREA_NAME": "Scarborough-Rouge Park", "AREA_DESC": "Scarborough-Rouge Park (25)", "FEATURE_CODE": null, "FEATURE_CODE_DESC": "None", "TRANS_ID_CREATE": 279754.0, "TRANS_ID_EXPIRE": -1.0, "OBJECTID": 17344881, "Toronto Raccoon Activity Index_datetime": "March 30, 2024", "Toronto Raccoon Activity Index_date": "March 30, 2024", "Toronto Raccoon Activity Index_hour": "23", "Toronto Raccoon Activity Index_ward_id": "25", "Toronto Raccoon Activity Index_units_observed": "17", "Toronto Raccoon Activity Index_bins_compromised": "13", "Toronto Raccoon Activity Index_raccoon_confidence_level": "10", "Toronto Raccoon Activity Index_average_unit_weight_kg": "5.62", "Toronto Raccoon Activity Index_incidents_of_raccoon_human_standoff": "3", "Toronto Raccoon Activity Index_avg_standoff_duration_sec": "25", "Toronto Raccoon Activity Index_proximity_to_a_patio": "0", "Toronto Raccoon Activity Index_complaints_logged": "2" }, "geometry": { "type": "Point", "coordinates": [ -79.176851516415766, 43.805654266414692 ] } },
{ "type": "Feature", "properties": { "_id": 8, "AREA_ID": 2457733.0, "DATE_EFFECTIVE": "2018-08-07T14:11:06", "DATE_EXPIRY": "3000-01-01T00:00:00", "AREA_ATTR_ID": 25993189.0, "AREA_TYPE_ID": 528.0, "PARENT_AREA_ID": null, "AREA_TYPE": "CITW", "AREA_CLASS_ID": null, "AREA_CLASS": "None", "AREA_SHORT_CODE": "23", "AREA_LONG_CODE": "23", "AREA_NAME": "Scarborough North", "AREA_DESC": "Scarborough North (23)", "FEATURE_CODE": null, "FEATURE_CODE_DESC": "None", "TRANS_ID_CREATE": 279754.0, "TRANS_ID_EXPIRE": -1.0, "OBJECTID": 17344897, "Toronto Raccoon Activity Index_datetime": "March 30, 2024", "Toronto Raccoon Activity Index_date": "March 30, 2024", "Toronto Raccoon Activity Index_hour": "23", "Toronto Raccoon Activity Index_ward_id": "23", "Toronto Raccoon Activity Index_units_observed": "15", "Toronto Raccoon Activity Index_bins_compromised": "12", "Toronto Raccoon Activity Index_raccoon_confidence_level": "10", "Toronto Raccoon Activity Index_average_unit_weight_kg": "6.01", "Toronto Raccoon Activity Index_incidents_of_raccoon_human_standoff": "2", "Toronto Raccoon Activity Index_avg_standoff_duration_sec": "30", "Toronto Raccoon Activity Index_proximity_to_a_patio": "0", "Toronto Raccoon Activity Index_complaints_logged": "1" }, "geometry": { "type": "Point", "coordinates": [ -79.254670342734471, 43.809673920586434 ] } },
{ "type": "Feature", "properties": { "_id": 9, "AREA_ID": 2457732.0, "DATE_EFFECTIVE": "2018-08-07T14:11:06", "DATE_EXPIRY": "3000-01-01T00:00:00", "AREA_ATTR_ID": 25993188.0, "AREA_TYPE_ID": 528.0, "PARENT_AREA_ID": null, "AREA_TYPE": "CITW", "AREA_CLASS_ID": null, "AREA_CLASS": "None", "AREA_SHORT_CODE": "24", "AREA_LONG_CODE": "24", "AREA_NAME": "Scarborough-Guildwood", "AREA_DESC": "Scarborough-Guildwood (24)", "FEATURE_CODE": null, "FEATURE_CODE_DESC": "None", "TRANS_ID_CREATE": 279754.0, "TRANS_ID_EXPIRE": -1.0, "OBJECTID": 17344913, "Toronto Raccoon Activity Index_datetime": "March 30, 2024", "Toronto Raccoon Activity Index_date": "March 30, 2024", "Toronto Raccoon Activity Index_hour": "23", "Toronto Raccoon Activity Index_ward_id": "24", "Toronto Raccoon Activity Index_units_observed": "18", "Toronto Raccoon Activity Index_bins_compromised": "12", "Toronto Raccoon Activity Index_raccoon_confidence_level": "10", "Toronto Raccoon Activity Index_average_unit_weight_kg": "5.87", "Toronto Raccoon Activity Index_incidents_of_raccoon_human_standoff": "1", "Toronto Raccoon Activity Index_avg_standoff_duration_sec": "33", "Toronto Raccoon Activity Index_proximity_to_a_patio": "0", "Toronto Raccoon Activity Index_complaints_logged": "2" }, "geometry": { "type": "Point", "coordinates": [ -79.214664567240447, 43.765800498148785 ] } },
{ "type": "Feature", "properties": { "_id": 10, "AREA_ID": 2457731.0, "DATE_EFFECTIVE": "2018-08-07T14:11:06", "DATE_EXPIRY": "3000-01-01T00:00:00", "AREA_ATTR_ID": 25993187.0, "AREA_TYPE_ID": 528.0, "PARENT_AREA_ID": null, "AREA_TYPE": "CITW", "AREA_CLASS_ID": null, "AREA_CLASS": "None", "AREA_SHORT_CODE": "21", "AREA_LONG_CODE": "21", "AREA_NAME": "Scarborough Centre", "AREA_DESC": "Scarborough Centre (21)", "FEATURE_CODE": null, "FEATURE_CODE_DESC": "None", "TRANS_ID_CREATE": 279754.0, "TRANS_ID_EXPIRE": -1.0, "OBJECTID": 17344929, "Toronto Raccoon Activity Index_datetime": "March 30, 2024", "Toronto Raccoon Activity Index_date": "March 30, 2024", "Toronto Raccoon Activity Index_hour": "23", "Toronto Raccoon Activity Index_ward_id": "21", "Toronto Raccoon Activity Index_units_observed": "14", "Toronto Raccoon Activity Index_bins_compromised": "14", "Toronto Raccoon Activity Index_raccoon_confidence_level": "10", "Toronto Raccoon Activity Index_average_unit_weight_kg": "5.16", "Toronto Raccoon Activity Index_incidents_of_raccoon_human_standoff": "2", "Toronto Raccoon Activity Index_avg_standoff_duration_sec": "25", "Toronto Raccoon Activity Index_proximity_to_a_patio": "0", "Toronto Raccoon Activity Index_complaints_logged": "2" }, "geometry": { "type": "Point", "coordinates": [ -79.276614105419412, 43.7527402326225 ] } },
{ "type": "Feature", "properties": { "_id": 11, "AREA_ID": 2457730.0, "DATE_EFFECTIVE": "2018-08-07T14:11:06", "DATE_EXPIRY": "3000-01-01T00:00:00", "AREA_ATTR_ID": 25993186.0, "AREA_TYPE_ID": 528.0, "PARENT_AREA_ID": null, "AREA_TYPE": "CITW", "AREA_CLASS_ID": null, "AREA_CLASS": "None", "AREA_SHORT_CODE": "22", "AREA_LONG_CODE": "22", "AREA_NAME": "Scarborough-Agincourt", "AREA_DESC": "Scarborough-Agincourt (22)", "FEATURE_CODE": null, "FEATURE_CODE_DESC": "None", "TRANS_ID_CREATE": 279754.0, "TRANS_ID_EXPIRE": -1.0, "OBJECTID": 17344945, "Toronto Raccoon Activity Index_datetime": "March 30, 2024", "Toronto Raccoon Activity Index_date": "March 30, 2024", "Toronto Raccoon Activity Index_hour": "23", "Toronto Raccoon Activity Index_ward_id": "22", "Toronto Raccoon Activity Index_units_observed": "15", "Toronto Raccoon Activity Index_bins_compromised": "12", "Toronto Raccoon Activity Index_raccoon_confidence_level": "10", "Toronto Raccoon Activity Index_average_unit_weight_kg": "4.55", "Toronto Raccoon Activity Index_incidents_of_raccoon_human_standoff": "3", "Toronto Raccoon Activity Index_avg_standoff_duration_sec": "20", "Toronto Raccoon Activity Index_proximity_to_a_patio": "0", "Toronto Raccoon Activity Index_complaints_logged": "2" }, "geometry": { "type": "Point", "coordinates": [ -79.308136330810669, 43.796485905365962 ] } },
{ "type": "Feature", "properties": { "_id": 12, "AREA_ID": 2457729.0, "DATE_EFFECTIVE": "2018-08-07T14:11:06", "DATE_EXPIRY": "3000-01-01T00:00:00", "AREA_ATTR_ID": 25993185.0, "AREA_TYPE_ID": 528.0, "PARENT_AREA_ID": null, "AREA_TYPE": "CITW", "AREA_CLASS_ID": null, "AREA_CLASS": "None", "AREA_SHORT_CODE": "15", "AREA_LONG_CODE": "15", "AREA_NAME": "Don Valley West", "AREA_DESC": "Don Valley West (15)", "FEATURE_CODE": null, "FEATURE_CODE_DESC": "None", "TRANS_ID_CREATE": 279754.0, "TRANS_ID_EXPIRE": -1.0, "OBJECTID": 17344961, "Toronto Raccoon Activity Index_datetime": "March 30, 2024", "Toronto Raccoon Activity Index_date": "March 30, 2024", "Toronto Raccoon Activity Index_hour": "23", "Toronto Raccoon Activity Index_ward_id": "15", "Toronto Raccoon Activity Index_units_observed": "16", "Toronto Raccoon Activity Index_bins_compromised": "12", "Toronto Raccoon Activity Index_raccoon_confidence_level": "9.9", "Toronto Raccoon Activity Index_average_unit_weight_kg": "4.96", "Toronto Raccoon Activity Index_incidents_of_raccoon_human_standoff": "2", "Toronto Raccoon Activity Index_avg_standoff_duration_sec": "27", "Toronto Raccoon Activity Index_proximity_to_a_patio": "0", "Toronto Raccoon Activity Index_complaints_logged": "1" }, "geometry": { "type": "Point", "coordinates": [ -79.375361265855332, 43.728400760503803 ] } },
{ "type": "Feature", "properties": { "_id": 13, "AREA_ID": 2457728.0, "DATE_EFFECTIVE": "2018-08-07T14:11:06", "DATE_EXPIRY": "3000-01-01T00:00:00", "AREA_ATTR_ID": 25993184.0, "AREA_TYPE_ID": 528.0, "PARENT_AREA_ID": null, "AREA_TYPE": "CITW", "AREA_CLASS_ID": null, "AREA_CLASS": "None", "AREA_SHORT_CODE": "12", "AREA_LONG_CODE": "12", "AREA_NAME": "Toronto-St. Paul's", "AREA_DESC": "Toronto-St. Paul's (12)", "FEATURE_CODE": null, "FEATURE_CODE_DESC": "None", "TRANS_ID_CREATE": 279754.0, "TRANS_ID_EXPIRE": -1.0, "OBJECTID": 17344977, "Toronto Raccoon Activity Index_datetime": "March 30, 2024", "Toronto Raccoon Activity Index_date": "March 30, 2024", "Toronto Raccoon Activity Index_hour": "23", "Toronto Raccoon Activity Index_ward_id": "12", "Toronto Raccoon Activity Index_units_observed": "18", "Toronto Raccoon Activity Index_bins_compromised": "11", "Toronto Raccoon Activity Index_raccoon_confidence_level": "10", "Toronto Raccoon Activity Index_average_unit_weight_kg": "6.02", "Toronto Raccoon Activity Index_incidents_of_raccoon_human_standoff": "3", "Toronto Raccoon Activity Index_avg_standoff_duration_sec": "26", "Toronto Raccoon Activity Index_proximity_to_a_patio": "0", "Toronto Raccoon Activity Index_complaints_logged": "2" }, "geometry": { "type": "Point", "coordinates": [ -79.413987304208106, 43.690530092373692 ] } },
{ "type": "Feature", "properties": { "_id": 14, "AREA_ID": 2457727.0, "DATE_EFFECTIVE": "2018-08-07T14:11:06", "DATE_EXPIRY": "3000-01-01T00:00:00", "AREA_ATTR_ID": 25993183.0, "AREA_TYPE_ID": 528.0, "PARENT_AREA_ID": null, "AREA_TYPE": "CITW", "AREA_CLASS_ID": null, "AREA_CLASS": "None", "AREA_SHORT_CODE": "04", "AREA_LONG_CODE": "04", "AREA_NAME": "Parkdale-High Park", "AREA_DESC": "Parkdale-High Park (4)", "FEATURE_CODE": null, "FEATURE_CODE_DESC": "None", "TRANS_ID_CREATE": 279754.0, "TRANS_ID_EXPIRE": -1.0, "OBJECTID": 17344993, "Toronto Raccoon Activity Index_datetime": "March 30, 2024", "Toronto Raccoon Activity Index_date": "March 30, 2024", "Toronto Raccoon Activity Index_hour": "23", "Toronto Raccoon Activity Index_ward_id": "4", "Toronto Raccoon Activity Index_units_observed": "26", "Toronto Raccoon Activity Index_bins_compromised": "18", "Toronto Raccoon Activity Index_raccoon_confidence_level": "10", "Toronto Raccoon Activity Index_average_unit_weight_kg": "5.8", "Toronto Raccoon Activity Index_incidents_of_raccoon_human_standoff": "5", "Toronto Raccoon Activity Index_avg_standoff_duration_sec": "25", "Toronto Raccoon Activity Index_proximity_to_a_patio": "1", "Toronto Raccoon Activity Index_complaints_logged": "4" }, "geometry": { "type": "Point", "coordinates": [ -79.467343096207557, 43.650120851451227 ] } },
{ "type": "Feature", "properties": { "_id": 15, "AREA_ID": 2457726.0, "DATE_EFFECTIVE": "2018-08-07T14:11:06", "DATE_EXPIRY": "3000-01-01T00:00:00", "AREA_ATTR_ID": 25993182.0, "AREA_TYPE_ID": 528.0, "PARENT_AREA_ID": null, "AREA_TYPE": "CITW", "AREA_CLASS_ID": null, "AREA_CLASS": "None", "AREA_SHORT_CODE": "01", "AREA_LONG_CODE": "01", "AREA_NAME": "Etobicoke North", "AREA_DESC": "Etobicoke North (1)", "FEATURE_CODE": null, "FEATURE_CODE_DESC": "None", "TRANS_ID_CREATE": 279754.0, "TRANS_ID_EXPIRE": -1.0, "OBJECTID": 17345009, "Toronto Raccoon Activity Index_datetime": "March 30, 2024", "Toronto Raccoon Activity Index_date": "March 30, 2024", "Toronto Raccoon Activity Index_hour": "23", "Toronto Raccoon Activity Index_ward_id": "1", "Toronto Raccoon Activity Index_units_observed": "14", "Toronto Raccoon Activity Index_bins_compromised": "11", "Toronto Raccoon Activity Index_raccoon_confidence_level": "8.3", "Toronto Raccoon Activity Index_average_unit_weight_kg": "5.31", "Toronto Raccoon Activity Index_incidents_of_raccoon_human_standoff": "2", "Toronto Raccoon Activity Index_avg_standoff_duration_sec": "17", "Toronto Raccoon Activity Index_proximity_to_a_patio": "0", "Toronto Raccoon Activity Index_complaints_logged": "1" }, "geometry": { "type": "Point", "coordinates": [ -79.584671231000939, 43.71940981560553 ] } },
{ "type": "Feature", "properties": { "_id": 16, "AREA_ID": 2457725.0, "DATE_EFFECTIVE": "2018-08-07T14:11:06", "DATE_EXPIRY": "3000-01-01T00:00:00", "AREA_ATTR_ID": 25993181.0, "AREA_TYPE_ID": 528.0, "PARENT_AREA_ID": null, "AREA_TYPE": "CITW", "AREA_CLASS_ID": null, "AREA_CLASS": "None", "AREA_SHORT_CODE": "03", "AREA_LONG_CODE": "03", "AREA_NAME": "Etobicoke-Lakeshore", "AREA_DESC": "Etobicoke-Lakeshore (3)", "FEATURE_CODE": null, "FEATURE_CODE_DESC": "None", "TRANS_ID_CREATE": 279754.0, "TRANS_ID_EXPIRE": -1.0, "OBJECTID": 17345025, "Toronto Raccoon Activity Index_datetime": "March 30, 2024", "Toronto Raccoon Activity Index_date": "March 30, 2024", "Toronto Raccoon Activity Index_hour": "23", "Toronto Raccoon Activity Index_ward_id": "3", "Toronto Raccoon Activity Index_units_observed": "19", "Toronto Raccoon Activity Index_bins_compromised": "14", "Toronto Raccoon Activity Index_raccoon_confidence_level": "10", "Toronto Raccoon Activity Index_average_unit_weight_kg": "5.6", "Toronto Raccoon Activity Index_incidents_of_raccoon_human_standoff": "2", "Toronto Raccoon Activity Index_avg_standoff_duration_sec": "28", "Toronto Raccoon Activity Index_proximity_to_a_patio": "0", "Toronto Raccoon Activity Index_complaints_logged": "2" }, "geometry": { "type": "Point", "coordinates": [ -79.520870546495217, 43.621648790857627 ] } },
{ "type": "Feature", "properties": { "_id": 17, "AREA_ID": 2457724.0, "DATE_EFFECTIVE": "2018-08-07T14:11:06", "DATE_EXPIRY": "3000-01-01T00:00:00", "AREA_ATTR_ID": 25993180.0, "AREA_TYPE_ID": 528.0, "PARENT_AREA_ID": null, "AREA_TYPE": "CITW", "AREA_CLASS_ID": null, "AREA_CLASS": "None", "AREA_SHORT_CODE": "02", "AREA_LONG_CODE": "02", "AREA_NAME": "Etobicoke Centre", "AREA_DESC": "Etobicoke Centre (2)", "FEATURE_CODE": null, "FEATURE_CODE_DESC": "None", "TRANS_ID_CREATE": 279754.0, "TRANS_ID_EXPIRE": -1.0, "OBJECTID": 17345041, "Toronto Raccoon Activity Index_datetime": "March 30, 2024", "Toronto Raccoon Activity Index_date": "March 30, 2024", "Toronto Raccoon Activity Index_hour": "23", "Toronto Raccoon Activity Index_ward_id": "2", "Toronto Raccoon Activity Index_units_observed": "16", "Toronto Raccoon Activity Index_bins_compromised": "12", "Toronto Raccoon Activity Index_raccoon_confidence_level": "8.9", "Toronto Raccoon Activity Index_average_unit_weight_kg": "5.29", "Toronto Raccoon Activity Index_incidents_of_raccoon_human_standoff": "1", "Toronto Raccoon Activity Index_avg_standoff_duration_sec": "24", "Toronto Raccoon Activity Index_proximity_to_a_patio": "0", "Toronto Raccoon Activity Index_complaints_logged": "3" }, "geometry": { "type": "Point", "coordinates": [ -79.552527017388414, 43.66443385266728 ] } },
{ "type": "Feature", "properties": { "_id": 18, "AREA_ID": 2457723.0, "DATE_EFFECTIVE": "2018-08-07T14:11:06", "DATE_EXPIRY": "3000-01-01T00:00:00", "AREA_ATTR_ID": 25993179.0, "AREA_TYPE_ID": 528.0, "PARENT_AREA_ID": null, "AREA_TYPE": "CITW", "AREA_CLASS_ID": null, "AREA_CLASS": "None", "AREA_SHORT_CODE": "08", "AREA_LONG_CODE": "08", "AREA_NAME": "Eglinton-Lawrence", "AREA_DESC": "Eglinton-Lawrence (8)", "FEATURE_CODE": null, "FEATURE_CODE_DESC": "None", "TRANS_ID_CREATE": 279754.0, "TRANS_ID_EXPIRE": -1.0, "OBJECTID": 17345057, "Toronto Raccoon Activity Index_datetime": "March 30, 2024", "Toronto Raccoon Activity Index_date": "March 30, 2024", "Toronto Raccoon Activity Index_hour": "23", "Toronto Raccoon Activity Index_ward_id": "8", "Toronto Raccoon Activity Index_units_observed": "15", "Toronto Raccoon Activity Index_bins_compromised": "9", "Toronto Raccoon Activity Index_raccoon_confidence_level": "7.1", "Toronto Raccoon Activity Index_average_unit_weight_kg": "6.05", "Toronto Raccoon Activity Index_incidents_of_raccoon_human_standoff": "1", "Toronto Raccoon Activity Index_avg_standoff_duration_sec": "28", "Toronto Raccoon Activity Index_proximity_to_a_patio": "0", "Toronto Raccoon Activity Index_complaints_logged": "2" }, "geometry": { "type": "Point", "coordinates": [ -79.433846143821128, 43.718316296818877 ] } },
{ "type": "Feature", "properties": { "_id": 19, "AREA_ID": 2457722.0, "DATE_EFFECTIVE": "2018-08-07T14:11:06", "DATE_EXPIRY": "3000-01-01T00:00:00", "AREA_ATTR_ID": 25993178.0, "AREA_TYPE_ID": 528.0, "PARENT_AREA_ID": null, "AREA_TYPE": "CITW", "AREA_CLASS_ID": null, "AREA_CLASS": "None", "AREA_SHORT_CODE": "17", "AREA_LONG_CODE": "17", "AREA_NAME": "Don Valley North", "AREA_DESC": "Don Valley North (17)", "FEATURE_CODE": null, "FEATURE_CODE_DESC": "None", "TRANS_ID_CREATE": 279754.0, "TRANS_ID_EXPIRE": -1.0, "OBJECTID": 17345073, "Toronto Raccoon Activity Index_datetime": "March 30, 2024", "Toronto Raccoon Activity Index_date": "March 30, 2024", "Toronto Raccoon Activity Index_hour": "23", "Toronto Raccoon Activity Index_ward_id": "17", "Toronto Raccoon Activity Index_units_observed": "15", "Toronto Raccoon Activity Index_bins_compromised": "9", "Toronto Raccoon Activity Index_raccoon_confidence_level": "10", "Toronto Raccoon Activity Index_average_unit_weight_kg": "6.22", "Toronto Raccoon Activity Index_incidents_of_raccoon_human_standoff": "4", "Toronto Raccoon Activity Index_avg_standoff_duration_sec": "25", "Toronto Raccoon Activity Index_proximity_to_a_patio": "0", "Toronto Raccoon Activity Index_complaints_logged": "2" }, "geometry": { "type": "Point", "coordinates": [ -79.36003932676806, 43.787603082570918 ] } },
{ "type": "Feature", "properties": { "_id": 20, "AREA_ID": 2457721.0, "DATE_EFFECTIVE": "2018-08-07T14:11:06", "DATE_EXPIRY": "3000-01-01T00:00:00", "AREA_ATTR_ID": 25993177.0, "AREA_TYPE_ID": 528.0, "PARENT_AREA_ID": null, "AREA_TYPE": "CITW", "AREA_CLASS_ID": null, "AREA_CLASS": "None", "AREA_SHORT_CODE": "16", "AREA_LONG_CODE": "16", "AREA_NAME": "Don Valley East", "AREA_DESC": "Don Valley East (16)", "FEATURE_CODE": null, "FEATURE_CODE_DESC": "None", "TRANS_ID_CREATE": 279754.0, "TRANS_ID_EXPIRE": -1.0, "OBJECTID": 17345089, "Toronto Raccoon Activity Index_datetime": "March 30, 2024", "Toronto Raccoon Activity Index_date": "March 30, 2024", "Toronto Raccoon Activity Index_hour": "23", "Toronto Raccoon Activity Index_ward_id": "16", "Toronto Raccoon Activity Index_units_observed": "14", "Toronto Raccoon Activity Index_bins_compromised": "9", "Toronto Raccoon Activity Index_raccoon_confidence_level": "8.8", "Toronto Raccoon Activity Index_average_unit_weight_kg": "5.61", "Toronto Raccoon Activity Index_incidents_of_raccoon_human_standoff": "2", "Toronto Raccoon Activity Index_avg_standoff_duration_sec": "19", "Toronto Raccoon Activity Index_proximity_to_a_patio": "0", "Toronto Raccoon Activity Index_complaints_logged": "1" }, "geometry": { "type": "Point", "coordinates": [ -79.332983070281557, 43.73971967665225 ] } },
{ "type": "Feature", "properties": { "_id": 21, "AREA_ID": 2457720.0, "DATE_EFFECTIVE": "2018-08-07T14:11:06", "DATE_EXPIRY": "3000-01-01T00:00:00", "AREA_ATTR_ID": 25993176.0, "AREA_TYPE_ID": 528.0, "PARENT_AREA_ID": null, "AREA_TYPE": "CITW", "AREA_CLASS_ID": null, "AREA_CLASS": "None", "AREA_SHORT_CODE": "09", "AREA_LONG_CODE": "09", "AREA_NAME": "Davenport", "AREA_DESC": "Davenport (9)", "FEATURE_CODE": null, "FEATURE_CODE_DESC": "None", "TRANS_ID_CREATE": 279754.0, "TRANS_ID_EXPIRE": -1.0, "OBJECTID": 17345105, "Toronto Raccoon Activity Index_datetime": "March 30, 2024", "Toronto Raccoon Activity Index_date": "March 30, 2024", "Toronto Raccoon Activity Index_hour": "23", "Toronto Raccoon Activity Index_ward_id": "9", "Toronto Raccoon Activity Index_units_observed": "22", "Toronto Raccoon Activity Index_bins_compromised": "18", "Toronto Raccoon Activity Index_raccoon_confidence_level": "10", "Toronto Raccoon Activity Index_average_unit_weight_kg": "5.26", "Toronto Raccoon Activity Index_incidents_of_raccoon_human_standoff": "4", "Toronto Raccoon Activity Index_avg_standoff_duration_sec": "23", "Toronto Raccoon Activity Index_proximity_to_a_patio": "0", "Toronto Raccoon Activity Index_complaints_logged": "3" }, "geometry": { "type": "Point", "coordinates": [ -79.444050370887183, 43.669354835363883 ] } },
{ "type": "Feature", "properties": { "_id": 22, "AREA_ID": 2457719.0, "DATE_EFFECTIVE": "2018-08-07T14:11:06", "DATE_EXPIRY": "3000-01-01T00:00:00", "AREA_ATTR_ID": 25993175.0, "AREA_TYPE_ID": 528.0, "PARENT_AREA_ID": null, "AREA_TYPE": "CITW", "AREA_CLASS_ID": null, "AREA_CLASS": "None", "AREA_SHORT_CODE": "13", "AREA_LONG_CODE": "13", "AREA_NAME": "Toronto Centre", "AREA_DESC": "Toronto Centre (13)", "FEATURE_CODE": null, "FEATURE_CODE_DESC": "None", "TRANS_ID_CREATE": 279754.0, "TRANS_ID_EXPIRE": -1.0, "OBJECTID": 17345121, "Toronto Raccoon Activity Index_datetime": "March 30, 2024", "Toronto Raccoon Activity Index_date": "March 30, 2024", "Toronto Raccoon Activity Index_hour": "23", "Toronto Raccoon Activity Index_ward_id": "13", "Toronto Raccoon Activity Index_units_observed": "22", "Toronto Raccoon Activity Index_bins_compromised": "15", "Toronto Raccoon Activity Index_raccoon_confidence_level": "10", "Toronto Raccoon Activity Index_average_unit_weight_kg": "5.91", "Toronto Raccoon Activity Index_incidents_of_raccoon_human_standoff": "3", "Toronto Raccoon Activity Index_avg_standoff_duration_sec": "28", "Toronto Raccoon Activity Index_proximity_to_a_patio": "1", "Toronto Raccoon Activity Index_complaints_logged": "2" }, "geometry": { "type": "Point", "coordinates": [ -79.370101605412074, 43.660143629214552 ] } },
{ "type": "Feature", "properties": { "_id": 23, "AREA_ID": 2457718.0, "DATE_EFFECTIVE": "2018-08-07T14:11:06", "DATE_EXPIRY": "3000-01-01T00:00:00", "AREA_ATTR_ID": 25993174.0, "AREA_TYPE_ID": 528.0, "PARENT_AREA_ID": null, "AREA_TYPE": "CITW", "AREA_CLASS_ID": null, "AREA_CLASS": "None", "AREA_SHORT_CODE": "05", "AREA_LONG_CODE": "05", "AREA_NAME": "York South-Weston", "AREA_DESC": "York South-Weston (5)", "FEATURE_CODE": null, "FEATURE_CODE_DESC": "None", "TRANS_ID_CREATE": 279754.0, "TRANS_ID_EXPIRE": -1.0, "OBJECTID": 17345137, "Toronto Raccoon Activity Index_datetime": "March 30, 2024", "Toronto Raccoon Activity Index_date": "March 30, 2024", "Toronto Raccoon Activity Index_hour": "23", "Toronto Raccoon Activity Index_ward_id": "5", "Toronto Raccoon Activity Index_units_observed": "16", "Toronto Raccoon Activity Index_bins_compromised": "11", "Toronto Raccoon Activity Index_raccoon_confidence_level": "10", "Toronto Raccoon Activity Index_average_unit_weight_kg": "4.08", "Toronto Raccoon Activity Index_incidents_of_raccoon_human_standoff": "3", "Toronto Raccoon Activity Index_avg_standoff_duration_sec": "18", "Toronto Raccoon Activity Index_proximity_to_a_patio": "0", "Toronto Raccoon Activity Index_complaints_logged": "2" }, "geometry": { "type": "Point", "coordinates": [ -79.493372602618805, 43.694953747093329 ] } },
{ "type": "Feature", "properties": { "_id": 24, "AREA_ID": 2457717.0, "DATE_EFFECTIVE": "2018-08-07T14:11:06", "DATE_EXPIRY": "3000-01-01T00:00:00", "AREA_ATTR_ID": 25993173.0, "AREA_TYPE_ID": 528.0, "PARENT_AREA_ID": null, "AREA_TYPE": "CITW", "AREA_CLASS_ID": null, "AREA_CLASS": "None", "AREA_SHORT_CODE": "14", "AREA_LONG_CODE": "14", "AREA_NAME": "Toronto-Danforth", "AREA_DESC": "Toronto-Danforth (14)", "FEATURE_CODE": null, "FEATURE_CODE_DESC": "None", "TRANS_ID_CREATE": 279754.0, "TRANS_ID_EXPIRE": -1.0, "OBJECTID": 17345153, "Toronto Raccoon Activity Index_datetime": "March 30, 2024", "Toronto Raccoon Activity Index_date": "March 30, 2024", "Toronto Raccoon Activity Index_hour": "23", "Toronto Raccoon Activity Index_ward_id": "14", "Toronto Raccoon Activity Index_units_observed": "23", "Toronto Raccoon Activity Index_bins_compromised": "15", "Toronto Raccoon Activity Index_raccoon_confidence_level": "10", "Toronto Raccoon Activity Index_average_unit_weight_kg": "4.94", "Toronto Raccoon Activity Index_incidents_of_raccoon_human_standoff": "3", "Toronto Raccoon Activity Index_avg_standoff_duration_sec": "27", "Toronto Raccoon Activity Index_proximity_to_a_patio": "1", "Toronto Raccoon Activity Index_complaints_logged": "3" }, "geometry": { "type": "Point", "coordinates": [ -79.3392516657416, 43.665980135769274 ] } },
{ "type": "Feature", "properties": { "_id": 25, "AREA_ID": 2457716.0, "DATE_EFFECTIVE": "2018-08-07T14:11:06", "DATE_EXPIRY": "3000-01-01T00:00:00", "AREA_ATTR_ID": 25993172.0, "AREA_TYPE_ID": 528.0, "PARENT_AREA_ID": null, "AREA_TYPE": "CITW", "AREA_CLASS_ID": null, "AREA_CLASS": "None", "AREA_SHORT_CODE": "10", "AREA_LONG_CODE": "10", "AREA_NAME": "Spadina-Fort York", "AREA_DESC": "Spadina-Fort York (10)", "FEATURE_CODE": null, "FEATURE_CODE_DESC": "None", "TRANS_ID_CREATE": 279754.0, "TRANS_ID_EXPIRE": -1.0, "OBJECTID": 17345169, "Toronto Raccoon Activity Index_datetime": "March 30, 2024", "Toronto Raccoon Activity Index_date": "March 30, 2024", "Toronto Raccoon Activity Index_hour": "23", "Toronto Raccoon Activity Index_ward_id": "10", "Toronto Raccoon Activity Index_units_observed": "20", "Toronto Raccoon Activity Index_bins_compromised": "14", "Toronto Raccoon Activity Index_raccoon_confidence_level": "10", "Toronto Raccoon Activity Index_average_unit_weight_kg": "5.66", "Toronto Raccoon Activity Index_incidents_of_raccoon_human_standoff": "3", "Toronto Raccoon Activity Index_avg_standoff_duration_sec": "31", "Toronto Raccoon Activity Index_proximity_to_a_patio": "1", "Toronto Raccoon Activity Index_complaints_logged": "2" }, "geometry": { "type": "Point", "coordinates": [ -79.387335606983299, 43.635801299443919 ] } }
]
}
